start=new Date('2021-10-30T00:00:00.000Z').valueOf();
sats=[{"PERIOD":"95.592","DECAY_DATE":null,"BSTAR":"0.00008564600000","CENTER_NAME":"EARTH","NORAD_CAT_ID":"44933","RCS_SIZE":"LARGE","REF_FRAME":"TEME","MEAN_MOTION_DOT":"0.00000995","ARG_OF_PERICENTER":"75.5452","COUNTRY_CODE":"US","TLE_LINE1":"1 44933U 20001V   21302.67772848  .00000995  00000-0  85646-4 0  9999","EPHEMERIS_TYPE":"0","SITE":"AFETR","TLE_LINE2":"2 44933  53.0549 293.4430 0001413  75.5452 284.5693 15.06402192101181","RA_OF_ASC_NODE":"293.4430","ELEMENT_SET_NO":"999","SEMIMAJOR_AXIS":"6925.342","REV_AT_EPOCH":"10118","CLASSIFICATION_TYPE":"U","EPOCH":"2021-10-29T16:15:55.740672","MEAN_MOTION":"15.06402192","PERIAPSIS":"546.228","GP_ID":"188465530","OBJECT_TYPE":"PAYLOAD","OBJECT_ID":"2020-001V","LAUNCH_DATE":"2020-01-07","MEAN_ANOMALY":"284.5693","FILE":"3191844","MEAN_ELEMENT_THEORY":"SGP4","MEAN_MOTION_DDOT":"0.0000000000000","TIME_SYSTEM":"UTC","INCLINATION":"53.0549","APOAPSIS":"548.185","ECCENTRICITY":"0.00014130","OBJECT_NAME":"STARLINK-1144"},{"MEAN_ELEMENT_THEORY":"SGP4","FILE":"3191844","TIME_SYSTEM":"UTC","MEAN_MOTION_DDOT":"0.0000000000000","APOAPSIS":"548.395","INCLINATION":"53.0543","OBJECT_NAME":"STARLINK-1071","ECCENTRICITY":"0.00016890","GP_ID":"188466285","PERIAPSIS":"546.055","OBJECT_TYPE":"PAYLOAD","MEAN_MOTION":"15.06396319","OBJECT_ID":"2020-001W","LAUNCH_DATE":"2020-01-07","MEAN_ANOMALY":"283.8997","COUNTRY_CODE":"US","TLE_LINE1":"1 44934U 20001W   21302.62428537  .00001854  00000-0  14335-3 0  9999","MEAN_MOTION_DOT":"0.00001854","ARG_OF_PERICENTER":"76.2180","TLE_LINE2":"2 44934  53.0543 273.6822 0001689  76.2180 283.8997 15.06396319100161","EPHEMERIS_TYPE":"0","SITE":"AFETR","RA_OF_ASC_NODE":"273.6822","REV_AT_EPOCH":"10016","SEMIMAJOR_AXIS":"6925.360","ELEMENT_SET_NO":"999","EPOCH":"2021-10-29T14:58:58.255968","CLASSIFICATION_TYPE":"U","DECAY_DATE":null,"PERIOD":"95.592","BSTAR":"0.00014335000000","RCS_SIZE":"LARGE","CENTER_NAME":"EARTH","NORAD_CAT_ID":"44934","REF_FRAME":"TEME"},{"OBJECT_NAME":"STARLINK-1072","ECCENTRICITY":"0.00023920","INCLINATION":"53.0517","APOAPSIS":"356.337","MEAN_MOTION_DDOT":"0.0000000000000","TIME_SYSTEM":"UTC","FILE":"3191412","MEAN_ELEMENT_THEORY":"SGP4","OBJECT_ID":"2020-001X","LAUNCH_DATE":"2020-01-07","MEAN_ANOMALY":"344.3370","MEAN_MOTION":"15.71459550","PERIAPSIS":"353.116","GP_ID":"188434285","OBJECT_TYPE":"PAYLOAD","SEMIMAJOR_AXIS":"6732.862","ELEMENT_SET_NO":"999","REV_AT_EPOCH":"10052","CLASSIFICATION_TYPE":"U","EPOCH":"2021-10-29T08:19:06.555360","RA_OF_ASC_NODE":"246.6373","EPHEMERIS_TYPE":"0","SITE":"AFETR","TLE_LINE2":"2 44935  53.0517 246.6373 0002392  15.7721 344.3370 15.71459550100522","MEAN_MOTION_DOT":"0.00015546","ARG_OF_PERICENTER":"15.7721","COUNTRY_CODE":"US","TLE_LINE1":"1 44935U 20001X   21302.34660365  .00015546  00000-0  12366-3 0  9991","REF_FRAME":"TEME","CENTER_NAME":"EARTH","NORAD_CAT_ID":"44935","RCS_SIZE":"LARGE","BSTAR":"0.00012366000000","PERIOD":"91.635","DECAY_DATE":null},{"FILE":"3191412","MEAN_ELEMENT_THEORY":"SGP4","MEAN_MOTION_DDOT":"0.0000000000000","TIME_SYSTEM":"UTC","INCLINATION":"53.0539","APOAPSIS":"548.322","OBJECT_NAME":"STARLINK-1079","ECCENTRICITY":"0.00016650","MEAN_MOTION":"15.06414603","GP_ID":"188434536","PERIAPSIS":"546.016","OBJECT_TYPE":"PAYLOAD","LAUNCH_DATE":"2020-01-07","OBJECT_ID":"2020-001Z","MEAN_ANOMALY":"278.4385","ARG_OF_PERICENTER":"81.6793","MEAN_MOTION_DOT":"0.00001410","TLE_LINE1":"1 44937U 20001Z   21302.40311557  .00001410  00000-0  11353-3 0  9996","COUNTRY_CODE":"US","SITE":"AFETR","EPHEMERIS_TYPE":"0","TLE_LINE2":"2 44937  53.0539 274.6816 0001665  81.6793 278.4385 15.06414603100132","RA_OF_ASC_NODE":"274.6816","REV_AT_EPOCH":"10013","SEMIMAJOR_AXIS":"6925.304","ELEMENT_SET_NO":"999","CLASSIFICATION_TYPE":"U","EPOCH":"2021-10-29T09:40:29.185248","PERIOD":"95.591","DECAY_DATE":null,"BSTAR":"0.00011353000000","CENTER_NAME":"EARTH","NORAD_CAT_ID":"44937","RCS_SIZE":"LARGE","REF_FRAME":"TEME"},{"DECAY_DATE":null,"PERIOD":"95.592","BSTAR":"0.00012944000000","RCS_SIZE":"LARGE","NORAD_CAT_ID":"44938","CENTER_NAME":"EARTH","REF_FRAME":"TEME","TLE_LINE1":"1 44938U 20001AA  21302.63533713  .00001647  00000-0  12944-3 0  9991","COUNTRY_CODE":"US","ARG_OF_PERICENTER":"77.8341","MEAN_MOTION_DOT":"0.00001647","TLE_LINE2":"2 44938  53.0544 273.6307 0001485  77.8341 282.2814 15.06407034100162","EPHEMERIS_TYPE":"0","SITE":"AFETR","RA_OF_ASC_NODE":"273.6307","EPOCH":"2021-10-29T15:14:53.128032","CLASSIFICATION_TYPE":"U","REV_AT_EPOCH":"10016","SEMIMAJOR_AXIS":"6925.327","ELEMENT_SET_NO":"999","OBJECT_TYPE":"PAYLOAD","GP_ID":"188466030","PERIAPSIS":"546.164","MEAN_MOTION":"15.06407034","LAUNCH_DATE":"2020-01-07","MEAN_ANOMALY":"282.2814","OBJECT_ID":"2020-001AA","MEAN_ELEMENT_THEORY":"SGP4","FILE":"3191844","TIME_SYSTEM":"UTC","MEAN_MOTION_DDOT":"0.0000000000000","APOAPSIS":"548.220","INCLINATION":"53.0544","ECCENTRICITY":"0.00014850","OBJECT_NAME":"STARLINK-1082"},{"MEAN_ELEMENT_THEORY":"SGP4","FILE":"3191844","TIME_SYSTEM":"UTC","MEAN_MOTION_DDOT":"0.0000000000000","APOAPSIS":"548.313","INCLINATION":"53.0525","OBJECT_NAME":"STARLINK-1083","ECCENTRICITY":"0.00016110","OBJECT_TYPE":"PAYLOAD","GP_ID":"188466785","PERIAPSIS":"546.081","MEAN_MOTION":"15.06405401","MEAN_ANOMALY":"281.7591","LAUNCH_DATE":"2020-01-07","OBJECT_ID":"2020-001AB","TLE_LINE1":"1 44939U 20001AB  21302.64271912  .00003530  00000-0  25569-3 0  9993","COUNTRY_CODE":"US","MEAN_MOTION_DOT":"0.00003530","ARG_OF_PERICENTER":"78.3579","TLE_LINE2":"2 44939  53.0525 273.6069 0001611  78.3579 281.7591 15.06405401100169","EPHEMERIS_TYPE":"0","SITE":"AFETR","RA_OF_ASC_NODE":"273.6069","CLASSIFICATION_TYPE":"U","EPOCH":"2021-10-29T15:25:30.931968","SEMIMAJOR_AXIS":"6925.332","REV_AT_EPOCH":"10016","ELEMENT_SET_NO":"999","DECAY_DATE":null,"PERIOD":"95.592","BSTAR":"0.00025569000000","RCS_SIZE":"LARGE","NORAD_CAT_ID":"44939","CENTER_NAME":"EARTH","REF_FRAME":"TEME"},{"REF_FRAME":"TEME","NORAD_CAT_ID":"44940","CENTER_NAME":"EARTH","RCS_SIZE":"LARGE","BSTAR":"-0.00004797700000","PERIOD":"95.592","DECAY_DATE":null,"CLASSIFICATION_TYPE":"U","EPOCH":"2021-10-29T15:41:26.224800","SEMIMAJOR_AXIS":"6925.364","REV_AT_EPOCH":"10016","ELEMENT_SET_NO":"999","RA_OF_ASC_NODE":"273.5470","EPHEMERIS_TYPE":"0","SITE":"AFETR","TLE_LINE2":"2 44940  53.0542 273.5470 0001472  72.0183 288.0967 15.06394950100165","ARG_OF_PERICENTER":"72.0183","MEAN_MOTION_DOT":"-0.00000996","COUNTRY_CODE":"US","TLE_LINE1":"1 44940U 20001AC  21302.65377575 -.00000996  00000-0 -47977-4 0  9991","LAUNCH_DATE":"2020-01-07","MEAN_ANOMALY":"288.0967","OBJECT_ID":"2020-001AC","MEAN_MOTION":"15.06394950","OBJECT_TYPE":"PAYLOAD","GP_ID":"188467030","PERIAPSIS":"546.210","ECCENTRICITY":"0.00014720","OBJECT_NAME":"STARLINK-1091","INCLINATION":"53.0542","APOAPSIS":"548.248","MEAN_MOTION_DDOT":"0.0000000000000","TIME_SYSTEM":"UTC","MEAN_ELEMENT_THEORY":"SGP4","FILE":"3191844"},{"LAUNCH_DATE":"2020-01-07","OBJECT_ID":"2020-001AD","MEAN_ANOMALY":"293.0086","GP_ID":"188434036","PERIAPSIS":"546.192","OBJECT_TYPE":"PAYLOAD","MEAN_MOTION":"15.06397186","TIME_SYSTEM":"UTC","MEAN_MOTION_DDOT":"0.0000000000000","MEAN_ELEMENT_THEORY":"SGP4","FILE":"3191412","ECCENTRICITY":"0.00014880","OBJECT_NAME":"STARLINK-1094","APOAPSIS":"548.253","INCLINATION":"53.0544","BSTAR":"0.00006805500000","DECAY_DATE":null,"PERIOD":"95.592","REF_FRAME":"TEME","RCS_SIZE":"LARGE","CENTER_NAME":"EARTH","NORAD_CAT_ID":"44941","TLE_LINE2":"2 44941  53.0544 274.6401 0001488  67.1060 293.0086 15.06397186100139","EPHEMERIS_TYPE":"0","SITE":"AFETR","TLE_LINE1":"1 44941U 20001AD  21302.41050016  .00000732  00000-0  68055-4 0  9990","COUNTRY_CODE":"US","ARG_OF_PERICENTER":"67.1060","MEAN_MOTION_DOT":"0.00000732","ELEMENT_SET_NO":"999","SEMIMAJOR_AXIS":"6925.357","REV_AT_EPOCH":"10013","CLASSIFICATION_TYPE":"U","EPOCH":"2021-10-29T09:51:07.213824","RA_OF_ASC_NODE":"274.6401"},{"MEAN_ELEMENT_THEORY":"SGP4","FILE":"3191844","TIME_SYSTEM":"UTC","MEAN_MOTION_DDOT":"0.0000000000000","APOAPSIS":"548.204","INCLINATION":"53.0535","OBJECT_NAME":"STARLINK-1096","ECCENTRICITY":"0.00014190","OBJECT_TYPE":"PAYLOAD","PERIAPSIS":"546.239","GP_ID":"188465531","MEAN_MOTION":"15.06397337","OBJECT_ID":"2020-001AE","LAUNCH_DATE":"2020-01-07","MEAN_ANOMALY":"290.2823","COUNTRY_CODE":"US","TLE_LINE1":"1 44942U 20001AE  21302.66114734 -.00000450  00000-0 -11298-4 0  9992","MEAN_MOTION_DOT":"-0.00000450","ARG_OF_PERICENTER":"69.8319","TLE_LINE2":"2 44942  53.0535 273.5228 0001419  69.8319 290.2823 15.06397337100175","SITE":"AFETR","EPHEMERIS_TYPE":"0","RA_OF_ASC_NODE":"273.5228","EPOCH":"2021-10-29T15:52:03.130176","CLASSIFICATION_TYPE":"U","SEMIMAJOR_AXIS":"6925.357","REV_AT_EPOCH":"10017","ELEMENT_SET_NO":"999","DECAY_DATE":null,"PERIOD":"95.592","BSTAR":"-0.00001129800000","RCS_SIZE":"LARGE","NORAD_CAT_ID":"44942","CENTER_NAME":"EARTH","REF_FRAME":"TEME"},{"BSTAR":"0.00013653000000","PERIOD":"95.592","DECAY_DATE":null,"REF_FRAME":"TEME","CENTER_NAME":"EARTH","NORAD_CAT_ID":"44943","RCS_SIZE":"LARGE","EPHEMERIS_TYPE":"0","SITE":"AFETR","TLE_LINE2":"2 44943  53.0539 273.6212 0001466  81.1002 279.0153 15.06408068100166","ARG_OF_PERICENTER":"81.1002","MEAN_MOTION_DOT":"0.00001753","COUNTRY_CODE":"US","TLE_LINE1":"1 44943U 20001AF  21302.63902690  .00001753  00000-0  13653-3 0  9997","SEMIMAJOR_AXIS":"6925.324","ELEMENT_SET_NO":"999","REV_AT_EPOCH":"10016","CLASSIFICATION_TYPE":"U","EPOCH":"2021-10-29T15:20:11.924160","RA_OF_ASC_NODE":"273.6212","OBJECT_ID":"2020-001AF","LAUNCH_DATE":"2020-01-07","MEAN_ANOMALY":"279.0153","MEAN_MOTION":"15.06408068","GP_ID":"188466286","PERIAPSIS":"546.174","OBJECT_TYPE":"PAYLOAD","MEAN_MOTION_DDOT":"0.0000000000000","TIME_SYSTEM":"UTC","FILE":"3191844","MEAN_ELEMENT_THEORY":"SGP4","ECCENTRICITY":"0.00014660","OBJECT_NAME":"STARLINK-1100","INCLINATION":"53.0539","APOAPSIS":"548.204"}];
